STARLINK-33746          
1 63446U 25069P   26065.54849540  .00026049  00000+0  88870-3 0  9997
2 63446  53.1579 157.0719 0001026 346.8890  13.2084 15.30193418 52877
STARLINK-33799          
1 63447U 25069Q   26065.24619132  .00026255  00000+0  89517-3 0  9995
2 63447  53.1613 158.7476 0001440  58.4011 301.7130 15.30209807 52761
STARLINK-33797          
1 63448U 25069R   26065.39992508  .00017021  00000+0  58560-3 0  9998
2 63448  53.1591 157.5715 0001120  59.8783 300.2328 15.30193611 52854
STARLINK-33798          
1 63449U 25069S   26065.51061725  .00025586  00000+0  87305-3 0  9995
2 63449  53.1620 157.5402 0000574   8.3098 351.7912 15.30199007 52643
STARLINK-33736          
1 63450U 25069T   26065.52421868  .00016049  00000+0  55314-3 0  9995
2 63450  53.1595 156.9227 0001301  65.0927 295.0209 15.30180841 52874
STARLINK-33740          
1 63451U 25069U   26065.54532989  .00020617  00000+0  70674-3 0  9997
2 63451  53.1578 157.0520 0000288  55.9014 304.2014 15.30179418 52811
STARLINK-33763          
1 63452U 25069V   26065.52949792  .00020220  00000+0  69333-3 0  9990
2 63452  53.1593 156.9445 0001199  82.9303 277.1834 15.30182133 52924
STARLINK-33784          
1 63453U 25069W   26065.63702649  .00056660  00000+0  19082-2 0  9993
2 63453  53.1600 156.9158 0001232  86.3362 273.7780 15.30241531 52937
STARLINK-33768          
1 63454U 25069X   26065.41152879  .00021589  00000+0  73908-3 0  9994
2 63454  53.1589 157.6278 0001290  90.2316 269.8832 15.30193361 52900
STARLINK-33761          
1 63455U 25069Y   26065.53266370  .00022157  00000+0  75825-3 0  9992
2 63455  53.1587 156.9645 0000868  75.0096 285.1000 15.30189136 52920
STARLINK-33737          
1 63456U 25069Z   26065.53899297  .00032856  00000+0  11167-2 0  9998
2 63456  53.1585 156.9953 0001111  75.1814 284.9310 15.30195758 52818
STARLINK-33795          
1 63457U 25069AA  26065.63176404  .00029881  00000+0  10169-2 0  9993
2 63457  53.1608 156.8727 0000797  98.1115 261.9976 15.30202522 52823
STARLINK-33756          
1 63458U 25069AB  26065.63491105  .00044380  00000+0  15010-2 0  9993
2 63458  53.1608 156.8851 0000672 121.7971 238.3096 15.30213298 52932
STARLINK-33780          
1 63459U 25069AC  26065.40519624  .00012426  00000+0  43121-3 0  9997
2 63459  53.1590 157.5851 0001101  46.2518 313.8573 15.30181022 52799
STARLINK-33679          
1 63460U 25070A   26065.61948421  .00040291  00000+0  14649-2 0  9998
2 63460  42.9989 277.4538 0001192 259.7679 100.3039 15.27597359 52507
STARLINK-33706          
1 63461U 25070B   26065.55794679  .00033554  00000+0  12221-2 0  9994
2 63461  42.9957 277.8194 0000753 272.3186  87.7579 15.27612262 52497
