[{"OBJECT_NAME":"STARLINK-33746","OBJECT_ID":"2025-069P","EPOCH":"2026-03-06T13:09:50.002560","MEAN_MOTION":15.30193418,"ECCENTRICITY":0.00010269,"INCLINATION":53.1579,"RA_OF_ASC_NODE":157.0719,"ARG_OF_PERICENTER":346.889,"MEAN_ANOMALY":13.2084,"EPHEMERIS_TYPE":0,"CLASSIFICATION_TYPE":"U","NORAD_CAT_ID":63446,"ELEMENT_SET_NO":999,"REV_AT_EPOCH":5287,"BSTAR":0.0008887045,"MEAN_MOTION_DOT":0.00026049,"MEAN_MOTION_DDOT":0},{"OBJECT_NAME":"STARLINK-33799","OBJECT_ID":"2025-069Q","EPOCH":"2026-03-06T05:54:30.930048","MEAN_MOTION":15.30209807,"ECCENTRICITY":0.00014403,"INCLINATION":53.1613,"RA_OF_ASC_NODE":158.7476,"ARG_OF_PERICENTER":58.4011,"MEAN_ANOMALY":301.713,"EPHEMERIS_TYPE":0,"CLASSIFICATION_TYPE":"U","NORAD_CAT_ID":63447,"ELEMENT_SET_NO":999,"REV_AT_EPOCH":5276,"BSTAR":0.00089516866,"MEAN_MOTION_DOT":0.00026255,"MEAN_MOTION_DDOT":0},{"OBJECT_NAME":"STARLINK-33797","OBJECT_ID":"2025-069R","EPOCH":"2026-03-06T09:35:53.526912","MEAN_MOTION":15.30193611,"ECCENTRICITY":0.00011206,"INCLINATION":53.1591,"RA_OF_ASC_NODE":157.5715,"ARG_OF_PERICENTER":59.8783,"MEAN_ANOMALY":300.2328,"EPHEMERIS_TYPE":0,"CLASSIFICATION_TYPE":"U","NORAD_CAT_ID":63448,"ELEMENT_SET_NO":999,"REV_AT_EPOCH":5285,"BSTAR":0.0005855971,"MEAN_MOTION_DOT":0.00017021,"MEAN_MOTION_DDOT":0},{"OBJECT_NAME":"STARLINK-33798","OBJECT_ID":"2025-069S","EPOCH":"2026-03-06T12:15:17.330400","MEAN_MOTION":15.30199007,"ECCENTRICITY":5.743e-5,"INCLINATION":53.162,"RA_OF_ASC_NODE":157.5402,"ARG_OF_PERICENTER":8.3098,"MEAN_ANOMALY":351.7912,"EPHEMERIS_TYPE":0,"CLASSIFICATION_TYPE":"U","NORAD_CAT_ID":63449,"ELEMENT_SET_NO":999,"REV_AT_EPOCH":5264,"BSTAR":0.00087305269,"MEAN_MOTION_DOT":0.00025586,"MEAN_MOTION_DDOT":0},{"OBJECT_NAME":"STARLINK-33736","OBJECT_ID":"2025-069T","EPOCH":"2026-03-06T12:34:52.493952","MEAN_MOTION":15.30180841,"ECCENTRICITY":0.00013019,"INCLINATION":53.1595,"RA_OF_ASC_NODE":156.9227,"ARG_OF_PERICENTER":65.0927,"MEAN_ANOMALY":295.0209,"EPHEMERIS_TYPE":0,"CLASSIFICATION_TYPE":"U","NORAD_CAT_ID":63450,"ELEMENT_SET_NO":999,"REV_AT_EPOCH":5287,"BSTAR":0.00055313587,"MEAN_MOTION_DOT":0.00016049,"MEAN_MOTION_DDOT":0},{"OBJECT_NAME":"STARLINK-33740","OBJECT_ID":"2025-069U","EPOCH":"2026-03-06T13:05:16.502496","MEAN_MOTION":15.30179418,"ECCENTRICITY":2.889e-5,"INCLINATION":53.1578,"RA_OF_ASC_NODE":157.052,"ARG_OF_PERICENTER":55.9014,"MEAN_ANOMALY":304.2014,"EPHEMERIS_TYPE":0,"CLASSIFICATION_TYPE":"U","NORAD_CAT_ID":63451,"ELEMENT_SET_NO":999,"REV_AT_EPOCH":5281,"BSTAR":0.00070673685,"MEAN_MOTION_DOT":0.00020617,"MEAN_MOTION_DDOT":0},{"OBJECT_NAME":"STARLINK-33763","OBJECT_ID":"2025-069V","EPOCH":"2026-03-06T12:42:28.620288","MEAN_MOTION":15.30182133,"ECCENTRICITY":0.00011991,"INCLINATION":53.1593,"RA_OF_ASC_NODE":156.9445,"ARG_OF_PERICENTER":82.9303,"MEAN_ANOMALY":277.1834,"EPHEMERIS_TYPE":0,"CLASSIFICATION_TYPE":"U","NORAD_CAT_ID":63452,"ELEMENT_SET_NO":999,"REV_AT_EPOCH":5292,"BSTAR":0.00069333153,"MEAN_MOTION_DOT":0.0002022,"MEAN_MOTION_DDOT":0},{"OBJECT_NAME":"STARLINK-33784","OBJECT_ID":"2025-069W","EPOCH":"2026-03-06T15:17:19.088736","MEAN_MOTION":15.30241531,"ECCENTRICITY":0.00012322,"INCLINATION":53.16,"RA_OF_ASC_NODE":156.9158,"ARG_OF_PERICENTER":86.3362,"MEAN_ANOMALY":273.778,"EPHEMERIS_TYPE":0,"CLASSIFICATION_TYPE":"U","NORAD_CAT_ID":63453,"ELEMENT_SET_NO":999,"REV_AT_EPOCH":5293,"BSTAR":0.0019081571,"MEAN_MOTION_DOT":0.0005666,"MEAN_MOTION_DDOT":0},{"OBJECT_NAME":"STARLINK-33768","OBJECT_ID":"2025-069X","EPOCH":"2026-03-06T09:52:36.087456","MEAN_MOTION":15.30193361,"ECCENTRICITY":0.00012905,"INCLINATION":53.1589,"RA_OF_ASC_NODE":157.6278,"ARG_OF_PERICENTER":90.2316,"MEAN_ANOMALY":269.8832,"EPHEMERIS_TYPE":0,"CLASSIFICATION_TYPE":"U","NORAD_CAT_ID":63454,"ELEMENT_SET_NO":999,"REV_AT_EPOCH":5290,"BSTAR":0.00073908074,"MEAN_MOTION_DOT":0.00021589,"MEAN_MOTION_DDOT":0},{"OBJECT_NAME":"STARLINK-33761","OBJECT_ID":"2025-069Y","EPOCH":"2026-03-06T12:47:02.143680","MEAN_MOTION":15.30189136,"ECCENTRICITY":8.684e-5,"INCLINATION":53.1587,"RA_OF_ASC_NODE":156.9645,"ARG_OF_PERICENTER":75.0096,"MEAN_ANOMALY":285.1,"EPHEMERIS_TYPE":0,"CLASSIFICATION_TYPE":"U","NORAD_CAT_ID":63455,"ELEMENT_SET_NO":999,"REV_AT_EPOCH":5292,"BSTAR":0.00075824767,"MEAN_MOTION_DOT":0.00022157,"MEAN_MOTION_DDOT":0},{"OBJECT_NAME":"STARLINK-33737","OBJECT_ID":"2025-069Z","EPOCH":"2026-03-06T12:56:08.992608","MEAN_MOTION":15.30195758,"ECCENTRICITY":0.00011114,"INCLINATION":53.1585,"RA_OF_ASC_NODE":156.9953,"ARG_OF_PERICENTER":75.1814,"MEAN_ANOMALY":284.931,"EPHEMERIS_TYPE":0,"CLASSIFICATION_TYPE":"U","NORAD_CAT_ID":63456,"ELEMENT_SET_NO":999,"REV_AT_EPOCH":5281,"BSTAR":0.0011166845,"MEAN_MOTION_DOT":0.00032856,"MEAN_MOTION_DDOT":0},{"OBJECT_NAME":"STARLINK-33795","OBJECT_ID":"2025-069AA","EPOCH":"2026-03-06T15:09:44.413056","MEAN_MOTION":15.30202522,"ECCENTRICITY":7.978e-5,"INCLINATION":53.1608,"RA_OF_ASC_NODE":156.8727,"ARG_OF_PERICENTER":98.1115,"MEAN_ANOMALY":261.9976,"EPHEMERIS_TYPE":0,"CLASSIFICATION_TYPE":"U","NORAD_CAT_ID":63457,"ELEMENT_SET_NO":999,"REV_AT_EPOCH":5282,"BSTAR":0.0010168702,"MEAN_MOTION_DOT":0.00029881,"MEAN_MOTION_DDOT":0},{"OBJECT_NAME":"STARLINK-33756","OBJECT_ID":"2025-069AB","EPOCH":"2026-03-06T15:14:16.314720","MEAN_MOTION":15.30213298,"ECCENTRICITY":6.728e-5,"INCLINATION":53.1608,"RA_OF_ASC_NODE":156.8851,"ARG_OF_PERICENTER":121.7971,"MEAN_ANOMALY":238.3096,"EPHEMERIS_TYPE":0,"CLASSIFICATION_TYPE":"U","NORAD_CAT_ID":63458,"ELEMENT_SET_NO":999,"REV_AT_EPOCH":5293,"BSTAR":0.0015010051,"MEAN_MOTION_DOT":0.0004438,"MEAN_MOTION_DDOT":0},{"OBJECT_NAME":"STARLINK-33780","OBJECT_ID":"2025-069AC","EPOCH":"2026-03-06T09:43:28.955136","MEAN_MOTION":15.30181022,"ECCENTRICITY":0.00011011,"INCLINATION":53.159,"RA_OF_ASC_NODE":157.5851,"ARG_OF_PERICENTER":46.2518,"MEAN_ANOMALY":313.8573,"EPHEMERIS_TYPE":0,"CLASSIFICATION_TYPE":"U","NORAD_CAT_ID":63459,"ELEMENT_SET_NO":999,"REV_AT_EPOCH":5279,"BSTAR":0.00043121068,"MEAN_MOTION_DOT":0.00012426,"MEAN_MOTION_DDOT":0},{"OBJECT_NAME":"STARLINK-33679","OBJECT_ID":"2025-070A","EPOCH":"2026-03-06T14:52:03.435744","MEAN_MOTION":15.27597359,"ECCENTRICITY":0.00011922,"INCLINATION":42.9989,"RA_OF_ASC_NODE":277.4538,"ARG_OF_PERICENTER":259.7679,"MEAN_ANOMALY":100.3039,"EPHEMERIS_TYPE":0,"CLASSIFICATION_TYPE":"U","NORAD_CAT_ID":63460,"ELEMENT_SET_NO":999,"REV_AT_EPOCH":5250,"BSTAR":0.0014649004,"MEAN_MOTION_DOT":0.00040291,"MEAN_MOTION_DDOT":0},{"OBJECT_NAME":"STARLINK-33706","OBJECT_ID":"2025-070B","EPOCH":"2026-03-06T13:23:26.602656","MEAN_MOTION":15.27612262,"ECCENTRICITY":7.535e-5,"INCLINATION":42.9957,"RA_OF_ASC_NODE":277.8194,"ARG_OF_PERICENTER":272.3186,"MEAN_ANOMALY":87.7579,"EPHEMERIS_TYPE":0,"CLASSIFICATION_TYPE":"U","NORAD_CAT_ID":63461,"ELEMENT_SET_NO":999,"REV_AT_EPOCH":5249,"BSTAR":0.0012221191,"MEAN_MOTION_DOT":0.00033554,"MEAN_MOTION_DDOT":0}]
